ONEWEB-0473             
1 51653U 22012AH  26165.58117147 -.00000431  00000+0 -12723-2 0  9997
2 51653  87.8829  36.7955 0001797  78.5450 281.5879 13.10369697208962
ONEWEB-0474             
1 51654U 22012AJ  26165.57287581  .00000075  00000+0  17839-3 0  9993
2 51654  87.8840  36.7812 0001629  73.5527 286.5780 13.10369416208956
ONEWEB-0475             
1 51655U 22012AK  26165.56458020  .00000075  00000+0  16044-3 0  9998
2 51655  87.9135   6.3943 0001589  67.7943 292.3357 13.17649357213341
ONEWEB-0490             
1 54113U 22138A   26165.40517932  .00000091  00000+0  19453-3 0  9995
2 54113  87.9172 305.5209 0001678 100.3610 259.7712 13.19724944176468
ONEWEB-0492             
1 54114U 22138B   26165.65790898  .00000044  00000+0  76923-4 0  9991
2 54114  87.9166 305.4723 0001789 106.2404 253.8926 13.19725856176501
ONEWEB-0495             
1 54115U 22138C   26165.63578900  .00000024  00000+0  26892-4 0  9996
2 54115  87.9168 305.4792 0001220 105.9660 254.1608 13.19724534176480
ONEWEB-0497             
1 54116U 22138D   26165.64842522  .00000136  00000+0  30636-3 0  9996
2 54116  87.9174 305.4686 0001801  99.6032 260.5304 13.19724735176473
ONEWEB-0499             
1 54117U 22138E   26165.63184224  .00000051  00000+0  96061-4 0  9995
2 54117  87.9166 305.4810 0001612  95.8833 264.2484 13.19726896176482
ONEWEB-0500             
1 54118U 22138F   26165.63420549  .00000075  00000+0  15410-3 0  9993
2 54118  87.9175 305.4746 0001918 100.1658 259.9692 13.19724879176497
ONEWEB-0501             
1 54119U 22138G   26165.66421354  .00000084  00000+0  17792-3 0  9997
2 54119  87.9175 305.4684 0001419 100.8491 259.2801 13.19723833176479
ONEWEB-0502             
1 54120U 22138H   26165.64999620  .00000083  00000+0  17506-3 0  9995
2 54120  87.9176 305.4601 0001631  94.6065 265.5254 13.19723685176493
ONEWEB-0503             
1 54121U 22138J   26165.41149722  .00000099  00000+0  21445-3 0  9995
2 54121  87.9178 305.5134 0001922  90.3033 269.8320 13.19724596176458
ONEWEB-0504             
1 54122U 22138K   26165.39886475  .00000065  00000+0  13054-3 0  9996
2 54122  87.9175 305.5207 0001646  93.7775 266.3546 13.19725214176461
ONEWEB-0505             
1 54123U 22138L   26165.62315819  .00000058  00000+0  11228-3 0  9995
2 54123  87.9173 305.4772 0001394  96.0390 264.0901 13.19727031176475
ONEWEB-0506             
1 54124U 22138M   26165.44623582  .00000022  00000+0  21840-4 0  9998
2 54124  87.9177 305.5094 0001532  99.1203 261.0103 13.19724244176440
ONEWEB-0507             
1 54125U 22138N   26165.61841731 -.00000005  00000+0 -45275-4 0  9997
2 54125  87.9166 305.4875 0001652 100.4624 259.6695 13.19725316176519
ONEWEB-0508             
1 54126U 22138P   26165.61524861 -.00000087  00000+0 -24965-3 0  9992
2 54126  87.9167 305.4877 0001478 106.7559 253.3736 13.19724257176492
ONEWEB-0509             
1 54127U 22138Q   26165.66578967  .00000090  00000+0  19212-3 0  9995
2 54127  87.9178 305.4669 0001692  99.2442 260.8882 13.19720004176478
ONEWEB-0510             
1 54128U 22138R   26165.55629127  .00000044  00000+0  77187-4 0  9994
2 54128  87.9193 274.9600 0002425  96.3818 263.7591 13.20772542178939
ONEWEB-0511             
1 54129U 22138S   26165.43519425  .00000003  00000+0 -24813-4 0  9995
2 54129  87.9174 305.5157 0001759  88.8594 271.2741 13.19725966176477
ONEWEB-0512             
1 54130U 22138T   26165.65473857  .00000048  00000+0  88274-4 0  9998
2 54130  87.9167 305.4771 0001527  93.3210 266.8098 13.19725309176477
ONEWEB-0513             
1 54131U 22138U   26165.66139702  .00000034  00000+0  52434-4 0  9992
2 54131  87.9174 305.4202 0001218  71.1958 288.9308 13.20268758176386
ONEWEB-0514             
1 54132U 22138V   26165.44308436 -.00000037  00000+0 -12470-3 0  9991
2 54132  87.9177 305.5128 0001981  96.8227 263.3131 13.19724425176464
ONEWEB-0515             
1 54133U 22138W   26165.54281420  .00000094  00000+0  20008-3 0  9993
2 54133  87.9197 274.9571 0002693 112.4953 247.6466 13.20770770178958
ONEWEB-0516             
1 54134U 22138X   26165.64525730  .00000109  00000+0  23933-3 0  9997
2 54134  87.9164 305.4790 0001802 102.3758 257.7576 13.19725720176492
ONEWEB-0517             
1 54135U 22138Y   26165.39727678  .00000085  00000+0  17915-3 0  9991
2 54135  87.9174 305.5205 0001955  89.2007 270.9350 13.19724994176461
ONEWEB-0518             
1 54136U 22138Z   26165.41625122  .00000154  00000+0  35121-3 0  9992
2 54136  87.9165 305.5267 0001816 104.6098 255.5236 13.19728019176462
ONEWEB-0519             
1 54137U 22138AA  26165.44151446  .00000040  00000+0  67724-4 0  9998
2 54137  87.9178 305.5126 0001926  92.0035 268.1319 13.19726606176477
ONEWEB-0520             
1 54138U 22138AB  26165.40044347  .00000068  00000+0  13696-3 0  9994
2 54138  87.9175 305.5208 0001572 100.3733 259.7577 13.19724780176452
ONEWEB-0521             
1 54139U 22138AC  26165.66105775  .00000136  00000+0  30794-3 0  9990
2 54139  87.9177 305.4577 0001984  92.1893 267.9467 13.19725516176430
