OBJECT_NAME,OBJECT_ID,EPOCH,MEAN_MOTION,ECCENTRICITY,INCLINATION,RA_OF_ASC_NODE,ARG_OF_PERICENTER,MEAN_ANOMALY,EPHEMERIS_TYPE,CLASSIFICATION_TYPE,NORAD_CAT_ID,ELEMENT_SET_NO,REV_AT_EPOCH,BSTAR,MEAN_MOTION_DOT,MEAN_MOTION_DDOT
ONEWEB-0473,2022-012AH,2026-06-14T13:56:53.215008,13.10369697,.00017979,87.8829,36.7955,78.5450,281.5879,0,U,51653,999,20896,-.12723048E-2,-.431E-5,0
ONEWEB-0474,2022-012AJ,2026-06-14T13:44:56.469984,13.10369416,.0001629,87.8840,36.7812,73.5527,286.5780,0,U,51654,999,20895,.17838732E-3,.75E-6,0
ONEWEB-0475,2022-012AK,2026-06-14T13:32:59.729280,13.17649357,.00015898,87.9135,6.3943,67.7943,292.3357,0,U,51655,999,21334,.16044165E-3,.75E-6,0
ONEWEB-0490,2022-138A,2026-06-14T09:43:27.493248,13.19724944,.00016782,87.9172,305.5209,100.3610,259.7712,0,U,54113,999,17646,.1945265E-3,.91E-6,0
ONEWEB-0492,2022-138B,2026-06-14T15:47:23.335872,13.19725856,.00017895,87.9166,305.4723,106.2404,253.8926,0,U,54114,999,17650,.76922758E-4,.44E-6,0
ONEWEB-0495,2022-138C,2026-06-14T15:15:32.169600,13.19724534,.00012207,87.9168,305.4792,105.9660,254.1608,0,U,54115,999,17648,.26891742E-4,.24E-6,0
ONEWEB-0497,2022-138D,2026-06-14T15:33:43.939008,13.19724735,.00018014,87.9174,305.4686,99.6032,260.5304,0,U,54116,999,17647,.3063562E-3,.136E-5,0
ONEWEB-0499,2022-138E,2026-06-14T15:09:51.169536,13.19726896,.00016125,87.9166,305.4810,95.8833,264.2484,0,U,54117,999,17648,.96060821E-4,.51E-6,0
ONEWEB-0500,2022-138F,2026-06-14T15:13:15.354336,13.19724879,.00019188,87.9175,305.4746,100.1658,259.9692,0,U,54118,999,17649,.15410245E-3,.75E-6,0
ONEWEB-0501,2022-138G,2026-06-14T15:56:28.049856,13.19723833,.0001419,87.9175,305.4684,100.8491,259.2801,0,U,54119,999,17647,.17791556E-3,.84E-6,0
ONEWEB-0502,2022-138H,2026-06-14T15:35:59.671680,13.19723685,.00016317,87.9176,305.4601,94.6065,265.5254,0,U,54120,999,17649,.17506355E-3,.83E-6,0
ONEWEB-0503,2022-138J,2026-06-14T09:52:33.359808,13.19724596,.00019227,87.9178,305.5134,90.3033,269.8320,0,U,54121,999,17645,.21445188E-3,.99E-6,0
ONEWEB-0504,2022-138K,2026-06-14T09:34:21.914400,13.19725214,.00016468,87.9175,305.5207,93.7775,266.3546,0,U,54122,999,17646,.13053705E-3,.65E-6,0
ONEWEB-0505,2022-138L,2026-06-14T14:57:20.867616,13.19727031,.00013945,87.9173,305.4772,96.0390,264.0901,0,U,54123,999,17647,.1122778E-3,.58E-6,0
ONEWEB-0506,2022-138M,2026-06-14T10:42:34.774848,13.19724244,.00015325,87.9177,305.5094,99.1203,261.0103,0,U,54124,999,17644,.21840082E-4,.22E-6,0
ONEWEB-0507,2022-138N,2026-06-14T14:50:31.255584,13.19725316,.00016523,87.9166,305.4875,100.4624,259.6695,0,U,54125,999,17651,-.45274575E-4,-.5E-7,0
ONEWEB-0508,2022-138P,2026-06-14T14:45:57.479904,13.19724257,.00014787,87.9167,305.4877,106.7559,253.3736,0,U,54126,999,17649,-.24964522E-3,-.87E-6,0
ONEWEB-0509,2022-138Q,2026-06-14T15:58:44.227488,13.19720004,.00016922,87.9178,305.4669,99.2442,260.8882,0,U,54127,999,17647,.19211844E-3,.9E-6,0
ONEWEB-0510,2022-138R,2026-06-14T13:21:03.565728,13.20772542,.00024258,87.9193,274.9600,96.3818,263.7591,0,U,54128,999,17893,.77187081E-4,.44E-6,0
ONEWEB-0511,2022-138S,2026-06-14T10:26:40.783200,13.19725966,.00017591,87.9174,305.5157,88.8594,271.2741,0,U,54129,999,17647,-.24813125E-4,.3E-7,0
ONEWEB-0512,2022-138T,2026-06-14T15:42:49.412448,13.19725309,.00015272,87.9167,305.4771,93.3210,266.8098,0,U,54130,999,17647,.88273593E-4,.48E-6,0
ONEWEB-0513,2022-138U,2026-06-14T15:52:24.702528,13.20268758,.00012185,87.9174,305.4202,71.1958,288.9308,0,U,54131,999,17638,.52433676E-4,.34E-6,0
ONEWEB-0514,2022-138V,2026-06-14T10:38:02.488704,13.19724425,.00019814,87.9177,305.5128,96.8227,263.3131,0,U,54132,999,17646,-.12470344E-3,-.37E-6,0
ONEWEB-0515,2022-138W,2026-06-14T13:01:39.146880,13.20770770,.00026936,87.9197,274.9571,112.4953,247.6466,0,U,54133,999,17895,.20007973E-3,.94E-6,0
ONEWEB-0516,2022-138X,2026-06-14T15:29:10.230720,13.19725720,.0001802,87.9164,305.4790,102.3758,257.7576,0,U,54134,999,17649,.23933225E-3,.109E-5,0
ONEWEB-0517,2022-138Y,2026-06-14T09:32:04.713792,13.19724994,.0001955,87.9174,305.5205,89.2007,270.9350,0,U,54135,999,17646,.1791486E-3,.85E-6,0
ONEWEB-0518,2022-138Z,2026-06-14T09:59:24.105408,13.19728019,.00018167,87.9165,305.5267,104.6098,255.5236,0,U,54136,999,17646,.35120673E-3,.154E-5,0
ONEWEB-0519,2022-138AA,2026-06-14T10:35:46.849344,13.19726606,.0001926,87.9178,305.5126,92.0035,268.1319,0,U,54137,999,17647,.67723902E-4,.4E-6,0
ONEWEB-0520,2022-138AB,2026-06-14T09:36:38.315808,13.19724780,.00015722,87.9175,305.5208,100.3733,259.7577,0,U,54138,999,17645,.13696133E-3,.68E-6,0
ONEWEB-0521,2022-138AC,2026-06-14T15:51:55.389600,13.19725516,.00019843,87.9177,305.4577,92.1893,267.9467,0,U,54139,999,17643,.30794063E-3,.136E-5,0
